$$SOE
2461295.500000000, A.D. 2026-Sep-12 00:00:00.0000, 2.077872381130234E+08, -6.143116837379885E+08, 9.642791877607000E+07,
2461302.500000000, A.D. 2026-Sep-19 00:00:00.0000, 2.155886535273938E+08, -6.119609178735433E+08, 9.612440321357650E+07,
2461309.500000000, A.D. 2026-Sep-26 00:00:00.0000, 2.233530009415701E+08, -6.095049039223256E+08, 9.580434921972603E+07,
2461316.500000000, A.D. 2026-Oct-03 00:00:00.0000, 2.310789901373626E+08, -6.069441930684323E+08, 9.546783183769077E+07,
2461323.500000000, A.D. 2026-Oct-10 00:00:00.0000, 2.387653389518354E+08, -6.042793479065233E+08, 9.511492787051985E+07,
2461330.500000000, A.D. 2026-Oct-17 00:00:00.0000, 2.464107732091082E+08, -6.015109422986045E+08, 9.474571587502554E+07,
2461337.500000000, A.D. 2026-Oct-24 00:00:00.0000, 2.540140266418815E+08, -5.986395613309096E+08, 9.436027614867809E+07,
2461344.500000000, A.D. 2026-Oct-31 00:00:00.0000, 2.615738409015380E+08, -5.956658014373243E+08, 9.395869069505951E+07,
2461351.500000000, A.D. 2026-Nov-07 00:00:00.0000, 2.690889659960488E+08, -5.925902706151394E+08, 9.354104314298227E+07,
2461358.500000000, A.D. 2026-Nov-14 00:00:00.0000, 2.765581613567433E+08, -5.894135878457986E+08, 9.310741867362085E+07,
2461365.500000000, A.D. 2026-Nov-21 00:00:00.0000, 2.839801957221627E+08, -5.861363810388833E+08, 9.265790417782304E+07,
2461372.500000000, A.D. 2026-Nov-28 00:00:00.0000, 2.913538448407141E+08, -5.827592865071417E+08, 9.219258848947722E+07,
2461379.500000000, A.D. 2026-Dec-05 00:00:00.0000, 2.986778906117243E+08, -5.792829506284447E+08, 9.171156230947013E+07,
2461386.500000000, A.D. 2026-Dec-12 00:00:00.0000, 3.059511218301267E+08, -5.757080305836022E+08, 9.121491805964352E+07,
2461393.500000000, A.D. 2026-Dec-19 00:00:00.0000, 3.131723346477096E+08, -5.720351941637377E+08, 9.070274984068753E+07,
2461400.500000000, A.D. 2026-Dec-26 00:00:00.0000, 3.203403326085448E+08, -5.682651195153297E+08, 9.017515343633357E+07,
2461407.500000000, A.D. 2027-Jan-02 00:00:00.0000, 3.274539265342121E+08, -5.643984950139124E+08, 8.963222632311182E+07,
2461414.500000000, A.D. 2027-Jan-09 00:00:00.0000, 3.345119343751751E+08, -5.604360192463807E+08, 8.907406767670225E+07,
2461421.500000000, A.D. 2027-Jan-16 00:00:00.0000, 3.415131810626093E+08, -5.563784010931959E+08, 8.850077837240019E+07,
2461428.500000000, A.D. 2027-Jan-23 00:00:00.0000, 3.484564984053061E+08, -5.522263599501677E+08, 8.791246097221239E+07,
2461435.500000000, A.D. 2027-Jan-30 00:00:00.0000, 3.553407252179146E+08, -5.479806261376207E+08, 8.730921967739493E+07,
2461442.500000000, A.D. 2027-Feb-06 00:00:00.0000, 3.621647081038777E+08, -5.436419411570380E+08, 8.669116023520491E+07,
2461449.500000000, A.D. 2027-Feb-13 00:00:00.0000, 3.689273024314503E+08, -5.392110565758516E+08, 8.605838994173004E+07,
2461456.500000000, A.D. 2027-Feb-20 00:00:00.0000, 3.756273711375759E+08, -5.346887323316854E+08, 8.541101789283518E+07,
2461463.500000000, A.D. 2027-Feb-27 00:00:00.0000, 3.822637827543961E+08, -5.300757376695527E+08, 8.474915509226674E+07,
2461470.500000000, A.D. 2027-Mar-06 00:00:00.0000, 3.888354116760372E+08, -5.253728527891225E+08, 8.407291429694572E+07,
2461477.500000000, A.D. 2027-Mar-13 00:00:00.0000, 3.953411390654548E+08, -5.205808691526706E+08, 8.338240991357681E+07,
2461484.500000000, A.D. 2027-Mar-20 00:00:00.0000, 4.017798532719486E+08, -5.157005892885542E+08, 8.267775798184466E+07,
2461491.500000000, A.D. 2027-Mar-27 00:00:00.0000, 4.081504499613464E+08, -5.107328266392622E+08, 8.195907618069977E+07,
2461498.500000000, A.D. 2027-Apr-03 00:00:00.0000, 4.144518321616907E+08, -5.056784055018377E+08, 8.122648383511367E+07,
2461505.500000000, A.D. 2027-Apr-10 00:00:00.0000, 4.206829102855052E+08, -5.005381610375707E+08, 8.048010191945554E+07,
2461512.500000000, A.D. 2027-Apr-17 00:00:00.0000, 4.268426021504814E+08, -4.953129393650814E+08, 7.972005305415186E+07,
2461519.500000000, A.D. 2027-Apr-24 00:00:00.0000, 4.329298330775991E+08, -4.900035977985604E+08, 7.894646148311816E+07,
2461526.500000000, A.D. 2027-May-01 00:00:00.0000, 4.389435363663695E+08, -4.846110052028554E+08, 7.815945300663264E+07,
2461533.500000000, A.D. 2027-May-08 00:00:00.0000, 4.448826544550086E+08, -4.791360417167318E+08, 7.735915490263698E+07,
2461540.500000000, A.D. 2027-May-15 00:00:00.0000, 4.507461392691987E+08, -4.735795968910400E+08, 7.654569605182600E+07,
2461547.500000000, A.D. 2027-May-22 00:00:00.0000, 4.565329501957480E+08, -4.679425688336777E+08, 7.571920719827694E+07,
2461554.500000000, A.D. 2027-May-29 00:00:00.0000, 4.622420530370191E+08, -4.622258658295239E+08, 7.487982091785662E+07,
2461561.500000000, A.D. 2027-Jun-05 00:00:00.0000, 4.678724208311722E+08, -4.564304073035148E+08, 7.402767146929792E+07,
2461568.500000000, A.D. 2027-Jun-12 00:00:00.0000, 4.734230345309414E+08, -4.505571236952646E+08, 7.316289474754345E+07,
2461575.500000000, A.D. 2027-Jun-19 00:00:00.0000, 4.788928832099825E+08, -4.446069561803861E+08, 7.228562829348207E+07,
2461582.500000000, A.D. 2027-Jun-26 00:00:00.0000, 4.842809640761957E+08, -4.385808564998540E+08, 7.139601131326464E+07,
2461589.500000000, A.D. 2027-Jul-03 00:00:00.0000, 4.895862824241350E+08, -4.324797868890735E+08, 7.049418469594826E+07,
2461596.500000000, A.D. 2027-Jul-10 00:00:00.0000, 4.948078515633094E+08, -4.263047200978783E+08, 6.958029102700491E+07,
2461603.500000000, A.D. 2027-Jul-17 00:00:00.0000, 4.999446927586467E+08, -4.200566395402199E+08, 6.865447459138246E+07,
2461610.500000000, A.D. 2027-Jul-24 00:00:00.0000, 5.049958353394302E+08, -4.137365396361557E+08, 6.771688134680766E+07,
2461617.500000000, A.D. 2027-Jul-31 00:00:00.0000, 5.099603173881567E+08, -4.073454261103398E+08, 6.676765884901327E+07,
2461624.500000000, A.D. 2027-Aug-07 00:00:00.0000, 5.148371868088440E+08, -4.008843150951752E+08, 6.580695624163200E+07,
2461631.500000000, A.D. 2027-Aug-14 00:00:00.0000, 5.196255004738868E+08, -3.943542312921383E+08, 6.483492450129272E+07,
2461638.500000000, A.D. 2027-Aug-21 00:00:00.0000, 5.243243220674087E+08, -3.877562085554861E+08, 6.385171660625038E+07,
2461645.500000000, A.D. 2027-Aug-28 00:00:00.0000, 5.289327220558939E+08, -3.810912916946526E+08, 6.285748741202602E+07,
2461652.500000000, A.D. 2027-Sep-04 00:00:00.0000, 5.334497786051321E+08, -3.743605369926606E+08, 6.185239354673803E+07,
2461659.500000000, A.D. 2027-Sep-11 00:00:00.0000, 5.378745780484737E+08, -3.675650121017662E+08, 6.083659339989614E+07,
2461666.500000000, A.D. 2027-Sep-18 00:00:00.0000, 5.422062150398060E+08, -3.607057959663789E+08, 5.981024713909701E+07,
2461673.500000000, A.D. 2027-Sep-25 00:00:00.0000, 5.464437926203213E+08, -3.537839788506313E+08, 5.877351672704607E+07,
2461680.500000000, A.D. 2027-Oct-02 00:00:00.0000, 5.505864222743310E+08, -3.468006624427076E+08, 5.772656593402812E+07,
2461687.500000000, A.D. 2027-Oct-09 00:00:00.0000, 5.546332239967850E+08, -3.397569600400713E+08, 5.666956034315597E+07,
2461694.500000000, A.D. 2027-Oct-16 00:00:00.0000, 5.585833264358058E+08, -3.326539968700562E+08, 5.560266733787552E+07,
2461701.500000000, A.D. 2027-Oct-23 00:00:00.0000, 5.624358673702159E+08, -3.254929105509863E+08, 5.452605604719016E+07,
2461708.500000000, A.D. 2027-Oct-30 00:00:00.0000, 5.661899948970473E+08, -3.182748510829045E+08, 5.343989726395708E+07,
2461715.500000000, A.D. 2027-Nov-06 00:00:00.0000, 5.698448681661924E+08, -3.110009792394480E+08, 5.234436353513956E+07,
2461722.500000000, A.D. 2027-Nov-13 00:00:00.0000, 5.733996556771960E+08, -3.036724654372386E+08, 5.123962943645579E+07,
2461729.500000000, A.D. 2027-Nov-20 00:00:00.0000, 5.768535340398383E+08, -2.962904912686104E+08, 5.012587158654381E+07,
2461736.500000000, A.D. 2027-Nov-27 00:00:00.0000, 5.802056888158523E+08, -2.888562507328058E+08, 4.900326849447483E+07,
2461743.500000000, A.D. 2027-Dec-04 00:00:00.0000, 5.834553154182855E+08, -2.813709502514859E+08, 4.787200050091334E+07,
2461750.500000000, A.D. 2027-Dec-11 00:00:00.0000, 5.866016195179064E+08, -2.738358084324145E+08, 4.673224978466664E+07,
2461757.500000000, A.D. 2027-Dec-18 00:00:00.0000, 5.896438172314432E+08, -2.662520559201587E+08, 4.558420038169904E+07,
2461764.500000000, A.D. 2027-Dec-25 00:00:00.0000, 5.925811352434906E+08, -2.586209353355412E+08, 4.442803820250776E+07,
2461771.500000000, A.D. 2028-Jan-01 00:00:00.0000, 5.954128109035282E+08, -2.509437012887711E+08, 4.326395104531389E+07,
$$EOE